NORAD_CAT_ID,OBJECT_NAME,OBJECT_TYPE,EPOCH,MEAN_MOTION,ECCENTRICITY,INCLINATION,RA_OF_ASC_NODE,ARG_OF_PERICENTER,MEAN_ANOMALY,BSTAR,MEAN_MOTION_DOT,MEAN_MOTION_DDOT,TLE_LINE0,TLE_LINE1,TLE_LINE2,SEMIMAJOR_AXIS,PERIOD,APOGEE,PERIGEE,DECAYED
52614.0,STARLINK-3982,PAYLOAD,2022-06-08 14:00:01,15.73271593,0.0001240999999999,53.2141,317.1466,71.1189,292.6593,-0.00099269,-0.00138095,0.0,0 STARLINK-3982,1 52614U 22052S   22159.58334491 -.00138095  00000-0 -99269-3 0  9991,2 52614  53.2141 317.1466 0001241  71.1189 292.6593 15.73271593  1302,6727.691,91.529,350.391,348.721,0.0
52614.0,STARLINK-3982,PAYLOAD,2022-06-08 22:00:01,15.73134476,0.000125,53.2138,315.4983,58.0347,34.7642,0.00046415,0.00064841,0.0,0 STARLINK-3982,1 52614U 22052S   22159.91668981  .00064841  00000-0  46415-3 0  9992,2 52614  53.2138 315.4983 0001250  58.0347  34.7642 15.73134476  1301,6728.081999999999,91.537,350.788,349.106,0.0
52614.0,STARLINK-3982,PAYLOAD,2022-06-09 04:00:00,15.73159716,0.0001102,53.214,314.2595,63.7194,5.6632,0.00022451,0.0003095,0.0,0 STARLINK-3982,1 52614U 22052S   22160.16667824  .00030950  00000-0  22451-3 0  9994,2 52614  53.2140 314.2595 0001102  63.7194   5.6632 15.73159716  4379,6728.01,91.536,350.616,349.134,0.0
52614.0,STARLINK-3982,PAYLOAD,2022-06-09 14:00:01,15.73234998,0.0001054,53.2137,312.1983,59.2146,211.2847,-0.00070327,-0.00098318,0.0,0 STARLINK-3982,1 52614U 22052S   22160.58334491 -.00098318  00000-0 -70327-3 0  9990,2 52614  53.2137 312.1983 0001054  59.2146 211.2847 15.73234998  1305,6727.795,91.531,350.37,348.951,0.0
52614.0,STARLINK-3982,PAYLOAD,2022-06-09 20:00:01,15.73143482,0.0001098,53.2133,310.9623,44.4933,202.7189,0.00046875,0.00065521,0.0,0 STARLINK-3982,1 52614U 22052S   22160.83334491  .00065521  00000-0  46875-3 0  9997,2 52614  53.2133 310.9623 0001098  44.4933 202.7189 15.73143482  4478,6728.056,91.536,350.66,349.18300000000005,0.0
52614.0,STARLINK-3982,PAYLOAD,2022-06-09 22:00:00,15.73149838,0.0001075,53.2129,310.5497,41.6742,317.758,0.00049472,0.00069235,0.0,0 STARLINK-3982,1 52614U 22052S   22160.91667824  .00069235  00000-0  49472-3 0  9997,2 52614  53.2129 310.5497 0001075  41.6742 317.7580 15.73149838  1302,6728.038000000001,91.536,350.626,349.18,0.0
52614.0,STARLINK-3982,PAYLOAD,2022-06-10 12:00:02,15.73240332,9.96e-05,53.2134,307.6606,53.7478,11.3366,-6.1919e-05,-9.315e-05,0.0,0 STARLINK-3982,1 52614U 22052S   22161.50002315 -.00009315  00000-0 -61919-4 0  9997,2 52614  53.2134 307.6606 0000996  53.7478  11.3366 15.73240332  4581,6727.78,91.531,350.315,348.975,0.0
52614.0,STARLINK-3982,PAYLOAD,2022-06-10 14:00:01,15.73258091,0.0001053,53.2134,307.2488,51.5239,125.7338,-0.00039477,-0.00055793,0.0,0 STARLINK-3982,1 52614U 22052S   22161.58334491 -.00055793  00000-0 -39477-3 0  9992,2 52614  53.2134 307.2488 0001053  51.5239 125.7338 15.73258091  1308,6727.73,91.53,350.30300000000005,348.886,0.0
52614.0,STARLINK-3982,PAYLOAD,2022-06-10 22:00:00,15.73195163,0.0001274999999999,53.2131,305.5999,42.4305,223.8183,0.0003993,0.0005577999999999,0.0,0 STARLINK-3982,1 52614U 22052S   22161.91667824  .00055780  00000-0  39930-3 0  9996,2 52614  53.2131 305.5999 0001275  42.4305 223.8183 15.73195163  1300,6727.909000000002,91.533,350.63199999999995,348.916,0.0
52614.0,STARLINK-3982,PAYLOAD,2022-06-11 20:00:01,15.73182453,0.0001438,53.2128,301.0635,44.2381,16.634,5.0089e-05,6.409999999999999e-05,0.0,0 STARLINK-3982,1 52614U 22052S   22162.83334491  .00006410  00000-0  50089-4 0  9994,2 52614  53.2128 301.0635 0001438  44.2381  16.6340 15.73182453  4796,6727.945,91.534,350.778,348.843,0.0
52614.0,STARLINK-3982,PAYLOAD,2022-06-11 22:00:00,15.73180406,0.0001406999999999,53.2125,300.6507,42.1861,130.9156,6.0661e-05,7.894e-05,0.0,0 STARLINK-3982,1 52614U 22052S   22162.91667824  .00007894  00000-0  60661-4 0  9996,2 52614  53.2125 300.6507 0001407  42.1861 130.9156 15.73180406  1307,6727.951,91.534,350.76300000000015,348.869,0.0
52614.0,STARLINK-3982,PAYLOAD,2022-06-12 12:00:00,15.73241504,0.0001296,53.2133,297.7626,48.5185,190.1757,-0.00015608,-0.00022505,0.0,0 STARLINK-3982,1 52614U 22052S   22163.50001157 -.00022505  00000-0 -15608-3 0  9991,2 52614  53.2133 297.7626 0001296  48.5185 190.1757 15.73241504  4898,6727.776999999999,91.531,350.514,348.77,0.0
52614.0,STARLINK-3982,PAYLOAD,2022-06-12 14:00:01,15.73264864,0.0001402,53.2132,297.3507,44.6094,306.3211,-0.00059013,-0.0008286,0.0,0 STARLINK-3982,1 52614U 22052S   22163.58334491 -.00082860  00000-0 -59013-3 0  9997,2 52614  53.2132 297.3507 0001402  44.6094 306.3211 15.73264864  1309,6727.71,91.529,350.51800000000014,348.63199999999995,0.0
52614.0,STARLINK-3982,PAYLOAD,2022-06-12 22:00:00,15.73215803,0.0001585999999999,53.2131,295.7014,41.0111,38.8735,6.5101e-05,8.532e-05,0.0,0 STARLINK-3982,1 52614U 22052S   22163.91667824  .00008532  00000-0  65101-4 0  9991,2 52614  53.2131 295.7014 0001586  41.0111  38.8735 15.73215803  1304,6727.85,91.532,350.782,348.648,0.0
52614.0,STARLINK-3982,PAYLOAD,2022-06-13 12:00:00,15.73259674,0.0001485,53.2134,292.8137,41.7514,103.7958,-0.00055144,-0.00077501,0.0,0 STARLINK-3982,1 52614U 22052S   22164.50001157 -.00077501  00000-0 -55144-3 0  9997,2 52614  53.2134 292.8137 0001485  41.7514 103.7958 15.73259674  5052,6727.725,91.53,350.589,348.591,0.0
52614.0,STARLINK-3982,PAYLOAD,2022-06-13 14:00:01,15.73249531,0.000157,53.2132,292.402,40.0265,217.7666,-0.00055454,-0.00077896,0.0,0 STARLINK-3982,1 52614U 22052S   22164.58334491 -.00077896  00000-0 -55454-3 0  9996,2 52614  53.2132 292.4020 0001570  40.0265 217.7666 15.73249531  1304,6727.754,91.53,350.675,348.56300000000016,0.0
52614.0,STARLINK-3982,PAYLOAD,2022-06-13 20:00:01,15.73208078,0.0001636,53.2127,291.1653,35.7282,198.7989,9.6286e-05,0.00012918,0.0,0 STARLINK-3982,1 52614U 22052S   22164.83334491  .00012918  00000-0  96286-4 0  9995,2 52614  53.2127 291.1653 0001636  35.7282 198.7989 15.73208078  5108,6727.871999999999,91.533,350.838,348.636,0.0
52614.0,STARLINK-3982,PAYLOAD,2022-06-13 22:00:00,15.73240786,0.0001621,53.2126,290.7524,35.2555,311.4978,-0.00040274,-0.00056862,0.0,0 STARLINK-3982,1 52614U 22052S   22164.91667824 -.00056862  00000-0 -40274-3 0  9996,2 52614  53.2126 290.7524 0001621  35.2555 311.4978 15.73240786  1303,6727.779,91.531,350.7340000000001,348.55300000000005,0.0
52614.0,STARLINK-3982,PAYLOAD,2022-06-14 12:00:00,15.7323707,0.0001539,53.2132,287.8649,38.2714,14.1163,-0.00059841,-0.00083905,0.0,0 STARLINK-3982,1 52614U 22052S   22165.50001157 -.00083905  00000-0 -59841-3 0  9991,2 52614  53.2132 287.8649 0001539  38.2714  14.1163 15.73237070  5212,6727.7890000000025,91.531,350.69,348.619,0.0
52614.0,STARLINK-3982,PAYLOAD,2022-06-14 14:00:01,15.73217684,0.0001674,53.2132,287.453,37.3386,127.2923,-0.00053168,-0.00074639,0.0,0 STARLINK-3982,1 52614U 22052S   22165.58334491 -.00074639  00000-0 -53168-3 0  9999,2 52614  53.2132 287.4530 0001674  37.3386 127.2923 15.73217684  1307,6727.845,91.532,350.836,348.584,0.0
52614.0,STARLINK-3982,PAYLOAD,2022-06-14 22:00:00,15.73154114,0.0001628,53.2131,285.8036,29.0467,224.476,0.00013171,0.00017868,0.0,0 STARLINK-3982,1 52614U 22052S   22165.91667824  .00017868  00000-0  13171-3 0  9994,2 52614  53.2131 285.8036 0001628  29.0467 224.4760 15.73154114  1303,6728.026,91.536,350.986,348.796,0.0
52614.0,STARLINK-3982,PAYLOAD,2022-06-15 04:00:00,15.73134201,0.0001496,53.2133,284.5651,31.282,198.9016,0.00065439,0.00091971,0.0,0 STARLINK-3982,1 52614U 22052S   22166.16667824  .00091971  00000-0  65439-3 0  9993,2 52614  53.2133 284.5651 0001496  31.2820 198.9016 15.73134201  5314,6728.083000000001,91.537,350.954,348.941,0.0
52614.0,STARLINK-3982,PAYLOAD,2022-06-15 14:00:01,15.73228979,0.0001811,53.2129,282.5051,32.5696,38.7286,-0.00031093,-0.00044086,0.0,0 STARLINK-3982,1 52614U 22052S   22166.58334491 -.00044086  00000-0 -31093-3 0  9996,2 52614  53.2129 282.5051 0001811  32.5696  38.7286 15.73228979  1308,6727.813,91.531,350.896,348.459,0.0
52614.0,STARLINK-3982,PAYLOAD,2022-06-15 20:00:01,15.73198095,0.0001913,53.2123,281.2681,31.9707,16.0437,-9.0781e-05,-0.00013341,0.0,0 STARLINK-3982,1 52614U 22052S   22166.83334491 -.00013341  00000-0 -90781-4 0  9994,2 52614  53.2123 281.2681 0001913  31.9707  16.0437 15.73198095  5425,6727.901,91.533,351.05300000000005,348.47900000000016,0.0
52614.0,STARLINK-3982,PAYLOAD,2022-06-15 22:00:00,15.73192291,0.000188,53.2123,280.8553,33.9322,126.3159,-5.947399999999999e-05,-8.956e-05,0.0,0 STARLINK-3982,1 52614U 22052S   22166.91667824 -.00008956  00000-0 -59474-4 0  9992,2 52614  53.2123 280.8553 0001880  33.9322 126.3159 15.73192291  1307,6727.917,91.534,351.047,348.517,0.0
52614.0,STARLINK-3982,PAYLOAD,2022-06-16 02:00:01,15.732043,0.0001745,53.2125,280.0292,37.5306,347.2292,0.00052218,0.00073322,0.0,0 STARLINK-3982,1 52614U 22052S   22167.08334491  .00073322  00000-0  52218-3 0  9997,2 52614  53.2125 280.0292 0001745  37.5306 347.2292 15.73204300  1300,6727.8830000000025,91.533,350.922,348.574,0.0
52614.0,STARLINK-3982,PAYLOAD,2022-06-19 14:00:01,15.73206054,0.000238,53.2176,262.7063,38.6852,19.7595,-2.0835e-05,-3.546e-05,0.0,0 STARLINK-3982,1 52614U 22052S   22170.58334491 -.00003546  00000-0 -20835-4 0  9990,2 52614  53.2176 262.7063 0002380  38.6852  19.7595 15.73206054  1308,6727.878000000002,91.533,351.344,348.142,0.0
52614.0,STARLINK-3982,PAYLOAD,2022-06-19 20:00:01,15.73251326,0.0002348,53.2123,261.4727,27.7373,7.5295,-0.00042032,-0.00059334,0.0,0 STARLINK-3982,1 52614U 22052S   22170.83334491 -.00059334  00000-0 -42032-3 0  9996,2 52614  53.2123 261.4727 0002348  27.7373   7.5295 15.73251326  6055,6727.749,91.53,351.194,348.034,0.0
52614.0,STARLINK-3982,PAYLOAD,2022-06-19 22:00:00,15.73229095,0.0002268,53.2125,261.0597,28.0472,119.469,-0.00018558,-0.0002662,0.0,0 STARLINK-3982,1 52614U 22052S   22170.91667824 -.00026620  00000-0 -18558-3 0  9992,2 52614  53.2125 261.0597 0002268  28.0472 119.4690 15.73229095  1306,6727.812,91.531,351.20300000000015,348.151,0.0
